GLOBALSTAR M067         
1 32263U 07048A   25279.21228730 -.00000083  00000+0  10866-3 0  9990
2 32263  51.9727  71.0585 0000970 169.5486   2.1282 12.40679172823265
GLOBALSTAR M070         
1 32264U 07048B   25279.08975051 -.00000040  00000+0  35396-3 0  9999
2 32264  51.9731 150.6478 0000978  67.4018  96.6734 12.62323760827673
GLOBALSTAR M066         
1 32265U 07048C   25278.90973153 -.00000107  00000+0 -10406-3 0  9991
2 32265  51.9590  67.8634 0004245 222.5913 307.2387 12.30378053828923
GLOBALSTAR M068         
1 32266U 07048D   25279.19248691 -.00000028  00000+0  41805-3 0  9994
2 32266  51.9898 323.8753 0001122  39.2439   2.1707 12.62830344831583
GLOBALSTAR M079         
1 37188U 10054A   25279.13482389 -.00000066  00000+0  21334-3 0  9998
2 37188  52.0024 162.0449 0000817  94.7664  62.3564 12.62267553690460
GLOBALSTAR M074         
1 37189U 10054B   25279.16316073 -.00000063  00000+0  22570-3 0  9998
2 37189  51.9999 161.2644 0000676  72.5009  92.8307 12.62272066691074
GLOBALSTAR M076         
1 37190U 10054C   25279.11038029 -.00000068  00000+0  19922-3 0  9999
2 37190  52.0015 161.6068 0000571  91.5415  73.2640 12.62265945690785
GLOBALSTAR M077         
1 37191U 10054D   25261.11398905 -.00000105  00000+0 -68518-5 0  9993
2 37191  52.0064 173.2575 0000611  67.5371  70.5425 12.62323380688888
